{
  "type": "FeatureCollection",
  "features": [
    {
      "type": "Feature",
      "properties": {
        "norad_id": 34750,
        "name": "COSMOS 2251 DEB",
        "group": "cosmos-2251-debris",
        "lat": 22.253096688598518,
        "lon": -148.95430313688772,
        "alt_km": 707.6241096990871,
        "timestamp": "2025-12-11T08:58:27.520429+00:00",
        "meta_object_name": "COSMOS 2251 DEB",
        "meta_object_id": "1993-036ZU",
        "meta_epoch": "2025-12-11T01:20:17.687328",
        "meta_mean_motion": 14.61292893,
        "meta_eccentricity": 0.0038917,
        "meta_inclination": 74.1083,
        "meta_ra_of_asc_node": 204.957,
        "meta_arg_of_pericenter": 158.6163,
        "meta_mean_anomaly": 351.9045,
        "meta_ephemeris_type": 0,
        "meta_classification_type": "U",
        "meta_norad_cat_id": 34750,
        "meta_element_set_no": 999,
        "meta_rev_at_epoch": 88206,
        "meta_bstar": 0.0015303,
        "meta_mean_motion_dot": 7.615e-05,
        "meta_mean_motion_ddot": 0,
        "tle_line1": "1 34750U 93036ZU  25345.05576027  .00007615  00000+0  15303-2 0  9993",
        "tle_line2": "2 34750  74.1083 204.9570 0038917 158.6163 351.9045 14.61292893882065"
      },
      "geometry": {
        "type": "Point",
        "coordinates": [
          -148.95430313688772,
          22.253096688598518
        ]
      }
    },
    {
      "type": "Feature",
      "properties": {
        "norad_id": 34752,
        "name": "COSMOS 2251 DEB",
        "group": "cosmos-2251-debris",
        "lat": -24.31773473204138,
        "lon": -4.058912006724021,
        "alt_km": 603.2518320158588,
        "timestamp": "2025-12-11T08:58:27.520440+00:00",
        "meta_object_name": "COSMOS 2251 DEB",
        "meta_object_id": "1993-036ZW",
        "meta_epoch": "2025-12-11T01:05:01.940640",
        "meta_mean_motion": 14.99861157,
        "meta_eccentricity": 0.0047907,
        "meta_inclination": 74.0135,
        "meta_ra_of_asc_node": 4.0534,
        "meta_arg_of_pericenter": 133.0461,
        "meta_mean_anomaly": 227.4754,
        "meta_ephemeris_type": 0,
        "meta_classification_type": "U",
        "meta_norad_cat_id": 34752,
        "meta_element_set_no": 999,
        "meta_rev_at_epoch": 89824,
        "meta_bstar": 0.0013025,
        "meta_mean_motion_dot": 0.00016535,
        "meta_mean_motion_ddot": 0,
        "tle_line1": "1 34752U 93036ZW  25345.04516135  .00016535  00000+0  13025-2 0  9998",
        "tle_line2": "2 34752  74.0135   4.0534 0047907 133.0461 227.4754 14.99861157898247"
      },
      "geometry": {
        "type": "Point",
        "coordinates": [
          -4.058912006724021,
          -24.31773473204138
        ]
      }
    },
    {
      "type": "Feature",
      "properties": {
        "norad_id": 34754,
        "name": "COSMOS 2251 DEB",
        "group": "cosmos-2251-debris",
        "lat": -56.73695232425866,
        "lon": 76.01279964288454,
        "alt_km": 769.4206662764263,
        "timestamp": "2025-12-11T08:58:27.520450+00:00",
        "meta_object_name": "COSMOS 2251 DEB",
        "meta_object_id": "1993-036ZY",
        "meta_epoch": "2025-12-11T01:30:21.281184",
        "meta_mean_motion": 14.40477672,
        "meta_eccentricity": 0.00295,
        "meta_inclination": 74.0305,
        "meta_ra_of_asc_node": 230.7044,
        "meta_arg_of_pericenter": 347.1261,
        "meta_mean_anomaly": 80.5102,
        "meta_ephemeris_type": 0,
        "meta_classification_type": "U",
        "meta_norad_cat_id": 34754,
        "meta_element_set_no": 999,
        "meta_rev_at_epoch": 88109,
        "meta_bstar": 0.00031324,
        "meta_mean_motion_dot": 9.75e-06,
        "meta_mean_motion_ddot": 0,
        "tle_line1": "1 34754U 93036ZY  25345.06274631  .00000975  00000+0  31324-3 0  9998",
        "tle_line2": "2 34754  74.0305 230.7044 0029500 347.1261  80.5102 14.40477672881098"
      },
      "geometry": {
        "type": "Point",
        "coordinates": [
          76.01279964288454,
          -56.73695232425866
        ]
      }
    },
    {
      "type": "Feature",
      "properties": {
        "norad_id": 34755,
        "name": "COSMOS 2251 DEB",
        "group": "cosmos-2251-debris",
        "lat": 67.97166245710527,
        "lon": -22.33233461345209,
        "alt_km": 1217.629134924222,
        "timestamp": "2025-12-11T08:58:27.520461+00:00",
        "meta_object_name": "COSMOS 2251 DEB",
        "meta_object_id": "1993-036ZZ",
        "meta_epoch": "2025-12-10T13:38:40.081344",
        "meta_mean_motion": 13.50549672,
        "meta_eccentricity": 0.0408338,
        "meta_inclination": 73.9258,
        "meta_ra_of_asc_node": 293.5146,
        "meta_arg_of_pericenter": 313.7179,
        "meta_mean_anomaly": 162.5908,
        "meta_ephemeris_type": 0,
        "meta_classification_type": "U",
        "meta_norad_cat_id": 34755,
        "meta_element_set_no": 999,
        "meta_rev_at_epoch": 82494,
        "meta_bstar": 0.0024737,
        "meta_mean_motion_dot": 2.646e-05,
        "meta_mean_motion_ddot": 0,
        "tle_line1": "1 34755U 93036ZZ  25344.56851946  .00002646  00000+0  24737-2 0  9999",
        "tle_line2": "2 34755  73.9258 293.5146 0408338 313.7179 162.5908 13.50549672824947"
      },
      "geometry": {
        "type": "Point",
        "coordinates": [
          -22.33233461345209,
          67.97166245710527
        ]
      }
    },
    {
      "type": "Feature",
      "properties": {
        "norad_id": 34756,
        "name": "COSMOS 2251 DEB",
        "group": "cosmos-2251-debris",
        "lat": -65.28635214294594,
        "lon": -34.82586981984138,
        "alt_km": 1015.8162406773345,
        "timestamp": "2025-12-11T08:58:27.520471+00:00",
        "meta_object_name": "COSMOS 2251 DEB",
        "meta_object_id": "1993-036AAA",
        "meta_epoch": "2025-12-11T00:42:08.325792",
        "meta_mean_motion": 13.67236535,
        "meta_eccentricity": 0.0344945,
        "meta_inclination": 74.0025,
        "meta_ra_of_asc_node": 107.1822,
        "meta_arg_of_pericenter": 343.3678,
        "meta_mean_anomaly": 15.6341,
        "meta_ephemeris_type": 0,
        "meta_classification_type": "U",
        "meta_norad_cat_id": 34756,
        "meta_element_set_no": 999,
        "meta_rev_at_epoch": 83398,
        "meta_bstar": 0.0012257,
        "meta_mean_motion_dot": 1.53e-05,
        "meta_mean_motion_ddot": 0,
        "tle_line1": "1 34756U 93036AAA 25345.02926303  .00001530  00000+0  12257-2 0  9997",
        "tle_line2": "2 34756  74.0025 107.1822 0344945 343.3678  15.6341 13.67236535833981"
      },
      "geometry": {
        "type": "Point",
        "coordinates": [
          -34.82586981984138,
          -65.28635214294594
        ]
      }
    },
    {
      "type": "Feature",
      "properties": {
        "norad_id": 34758,
        "name": "COSMOS 2251 DEB",
        "group": "cosmos-2251-debris",
        "lat": 48.67775699577686,
        "lon": -39.39858592682504,
        "alt_km": 763.2759295248716,
        "timestamp": "2025-12-11T08:58:27.520482+00:00",
        "meta_object_name": "COSMOS 2251 DEB",
        "meta_object_id": "1993-036AAC",
        "meta_epoch": "2025-12-11T05:12:02.918880",
        "meta_mean_motion": 13.58060405,
        "meta_eccentricity": 0.0381121,
        "meta_inclination": 74.1077,
        "meta_ra_of_asc_node": 301.948,
        "meta_arg_of_pericenter": 66.0346,
        "meta_mean_anomaly": 298.018,
        "meta_ephemeris_type": 0,
        "meta_classification_type": "U",
        "meta_norad_cat_id": 34758,
        "meta_element_set_no": 999,
        "meta_rev_at_epoch": 82889,
        "meta_bstar": 0.0017151,
        "meta_mean_motion_dot": 1.975e-05,
        "meta_mean_motion_ddot": 0,
        "tle_line1": "1 34758U 93036AAC 25345.21670045  .00001975  00000+0  17151-2 0  9990",
        "tle_line2": "2 34758  74.1077 301.9480 0381121  66.0346 298.0180 13.58060405828896"
      },
      "geometry": {
        "type": "Point",
        "coordinates": [
          -39.39858592682504,
          48.67775699577686
        ]
      }
    },
    {
      "type": "Feature",
      "properties": {
        "norad_id": 34760,
        "name": "COSMOS 2251 DEB",
        "group": "cosmos-2251-debris",
        "lat": 0.4923833803668668,
        "lon": -55.062387236372395,
        "alt_km": 759.7769095816084,
        "timestamp": "2025-12-11T08:58:27.520492+00:00",
        "meta_object_name": "COSMOS 2251 DEB",
        "meta_object_id": "1993-036AAE",
        "meta_epoch": "2025-12-11T03:59:03.168960",
        "meta_mean_motion": 14.19561942,
        "meta_eccentricity": 0.0096729,
        "meta_inclination": 74.0638,
        "meta_ra_of_asc_node": 305.1678,
        "meta_arg_of_pericenter": 357.6404,
        "meta_mean_anomaly": 20.7795,
        "meta_ephemeris_type": 0,
        "meta_classification_type": "U",
        "meta_norad_cat_id": 34760,
        "meta_element_set_no": 999,
        "meta_rev_at_epoch": 86666,
        "meta_bstar": 0.001023,
        "meta_mean_motion_dot": 2.236e-05,
        "meta_mean_motion_ddot": 0,
        "tle_line1": "1 34760U 93036AAE 25345.16600890  .00002236  00000+0  10230-2 0  9990",
        "tle_line2": "2 34760  74.0638 305.1678 0096729 357.6404  20.7795 14.19561942866666"
      },
      "geometry": {
        "type": "Point",
        "coordinates": [
          -55.062387236372395,
          0.4923833803668668
        ]
      }
    }
  ]
}